ONEWEB-0214             
1 48788U 21045X   26062.66927103  .00000160  00000+0  39133-3 0  9995
2 48788  87.8959 280.2421 0001202  99.3244 260.8022 13.15547304230411
ONEWEB-0221             
1 48789U 21045Y   26062.67639549  .00000153  00000+0  37136-3 0  9994
2 48789  87.8954 280.2510 0001640  95.9631 264.1686 13.15547418230503
ONEWEB-0213             
1 48790U 21045Z   26062.66530595  .00000140  00000+0  33874-3 0  9997
2 48790  87.8957 280.2569 0001506 100.7613 259.3687 13.15547886230560
ONEWEB-0212             
1 48791U 21045AA  26062.64232700  .00000001  00000+0 -32734-4 0  9995
2 48791  87.8956 280.2563 0001623  87.5604 272.5712 13.15546897230552
ONEWEB-0227             
1 48792U 21045AB  26062.64153793 -.00000015  00000+0 -73355-4 0  9990
2 48792  87.8950 280.2590 0001624  91.4683 268.6634 13.15546909230507
ONEWEB-0226             
1 48793U 21045AC  26062.63519563 -.00000085  00000+0 -25922-3 0  9994
2 48793  87.8946 280.2696 0001428 100.6651 259.4640 13.15547695230474
ONEWEB-0224             
1 48794U 21045AD  26062.67481282  .00000162  00000+0  39535-3 0  9994
2 48794  87.8946 280.2978 0002465  95.0249 265.1163 13.15548500230403
ONEWEB-0233             
1 48795U 21045AE  26062.67942809  .00000153  00000+0  37124-3 0  9994
2 48795  87.8942 280.3061 0001707  97.2081 262.9244 13.15547717230426
ONEWEB-0190             
1 48796U 21045AF  26062.66689086  .00000165  00000+0  40393-3 0  9994
2 48796  87.8944 280.2696 0001661 114.5730 245.5573 13.15547955230498
ONEWEB-0236             
1 48797U 21045AG  26062.68431777  .00000243  00000+0  61189-3 0  9992
2 48797  87.8940 280.2774 0001642  83.1993 276.9324 13.15546903230385
ONEWEB-0248             
1 48798U 21045AH  26062.62095015 -.00000001  00000+0 -37935-4 0  9995
2 48798  87.8956 280.2626 0001919 101.1329 259.0017 13.15550362230532
ONEWEB-0225             
1 48799U 21045AJ  26062.64311890  .00000013  00000+0  15291-5 0  9993
2 48799  87.8944 280.2745 0001677 109.5792 250.5520 13.15547510230546
ONEWEB-0215             
1 48800U 21045AK  26062.61302191  .00000040  00000+0  71456-4 0  9991
2 48800  87.8959 280.2527 0001837 111.6689 248.4637 13.15547950230419
ONEWEB-0216             
1 48801U 21045AL  26062.62254044 -.00001899  00000+0 -50801-2 0  9990
2 48801  87.8948 280.2698 0001164  84.9511 275.1752 13.15532454230425
ONEWEB-0239             
1 48802U 21045AM  26062.62727578 -.00000060  00000+0 -19218-3 0  9995
2 48802  87.8945 280.2840 0002119 109.2710 250.8650 13.15547238230462
ONEWEB-0249             
1 48967U 21060A   26062.56911703  .00000108  00000+0  24920-3 0  9999
2 48967  87.9000 249.7892 0001731  96.6371 263.4957 13.16593044225714
ONEWEB-0250             
1 48968U 21060B   26062.50146841  .00000061  00000+0  10898-3 0  9994
2 48968  87.9000 247.9027 0002653  89.1129 271.0311 13.25827275226218
